ASTRA 3B                
1 36581U 10021A   26169.18663186  .00000130  00000+0  00000+0 0  9992
2 36581   1.4722  83.5449 0004160   6.3830 267.1713  1.00271376 58877
COMSATBW-2              
1 36582U 10021B   26169.11328439  .00000082  00000+0  00000+0 0  9991
2 36582   0.0479  67.5271 0002618  35.1547 217.6520  1.00273035 58968
BEIDOU-2 G3             
1 36590U 10024A   26169.12637112 -.00000144  00000+0  00000+0 0  9995
2 36590   4.5184  61.5132 0007734 351.2919 338.7568  1.00270937 58772
BADR-5                  
1 36592U 10025A   26169.18801854  .00000148  00000+0  00000+0 0  9993
2 36592   0.0565 122.3347 0003879  70.1782 172.0656  1.00272537 53223
COMS 1                  
1 36744U 10032A   26169.14747284  .00000070  00000+0  00000+0 0  9996
2 36744   4.8083  75.3434 0011542  11.9093 301.8413  0.99162666 51091
ARABSAT-5A              
1 36745U 10032B   26169.18801854  .00000148  00000+0  00000+0 0  9991
2 36745   0.0536  37.5781 0005884  72.1343 254.9228  1.00275596 58658
ECHOSTAR 15             
1 36792U 10034A   26168.12200970 -.00000004  00000+0  00000+0 0  9992
2 36792   0.0379  67.2237 0001951 353.8646 129.4280  1.00271330 58327
BEIDOU-2 IGSO-1         
1 36828U 10036A   26168.91794174 -.00000086  00000+0  00000+0 0  9995
2 36828  54.3019 162.9525 0059238 225.3267 315.9903  1.00271928 58109
NILESAT 201             
1 36830U 10037A   26169.18056517 -.00000063  00000+0  00000+0 0  9996
2 36830   0.0226 234.1830 0004611 242.9428 207.3345  1.00272576 58384
RASCOM-QAF 1R           
1 36831U 10037B   26167.91989406  .00000016  00000+0  00000+0 0  9995
2 36831   0.0270  75.8799 0006769   5.1949 158.1701  1.00272678 58305
AEHF-1 (USA 214)        
1 36868U 10039A   26168.90270579  .00000138  00000+0  00000+0 0  9996
2 36868   8.2218  68.0425 0003912   9.0891 183.9496  1.00274872 53662
XM-5                    
1 37185U 10053A   26168.87391083 -.00000028  00000+0  00000+0 0  9994
2 37185   0.0616 273.1762 0002892 287.5831 264.7647  1.00270093 57495
BSAT-3B                 
1 37207U 10056B   26169.27505149 -.00000356  00000+0  00000+0 0  9991
2 37207   0.0594 238.2765 0001692 305.8503 291.2414  1.00268755 52110
BEIDOU-2 G4             
1 37210U 10057A   26169.14239784 -.00000120  00000+0  00000+0 0  9990
2 37210   3.6494  68.9384 0005315 196.4016 212.3040  1.00270614 57308
SKYTERRA 1              
1 37218U 10061A   26169.28387662 -.00000126  00000+0  00000+0 0  9993
2 37218   5.1281  50.8593 0002259  10.1886 206.3349  1.00271921 57206
HYLAS 1                 
1 37237U 10065A   26168.82826409  .00000081  00000+0  00000+0 0  9993
2 37237   5.6459  73.0125 0000846 322.6364 182.4019  1.00272604  6895
INTELSAT 17 (IS-17)     
1 37238U 10065B   26169.20649959 -.00000007  00000+0  00000+0 0  9999
2 37238   0.0051 207.6251 0002634 255.7028 303.4570  1.00271821 53257
BEIDOU-2 IGSO-2         
1 37256U 10068A   26166.85415660 -.00000214  00000+0  00000+0 0  9990
2 37256  47.5513 271.8488 0055883 212.6776 194.9519  1.00282881 56782
EUTELSAT KA-SAT 9A      
1 37258U 10069A   26167.82927125  .00000059  00000+0  00000+0 0  9991
2 37258   0.0613  11.4903 0003557 118.4700  82.6802  1.00274919 44003
HISPASAT 30W-5          
1 37264U 10070A   26169.17605848 -.00000222  00000+0  00000+0 0  9998
2 37264   0.0513 109.4530 0005184 355.1844 195.1667  1.00271701 53195
KOREASAT 6              
1 37265U 10070B   26169.28493154 -.00000118  00000+0  00000+0 0  9990
2 37265   0.0143  52.8868 0002117  42.8157  73.2761  1.00270851 56784
BEIDOU-2 IGSO-3         
1 37384U 11013A   26168.63859422 -.00000188  00000+0  00000+0 0  9999
2 37384  62.4080  40.1465 0034560 184.2780  19.0427  1.00267211 55660
INTELSAT 28 (IS-28)     
1 37392U 11016A   26169.17571182 -.00000232  00000+0  00000+0 0  9995
2 37392   1.8097  82.6045 0003588   5.3764 209.9749  1.00271708 53290
YAHSAT 1A               
1 37393U 11016B   26167.98045339  .00000000  00000+0  00000+0 0  9995
2 37393   0.0177  10.4655 0002910  81.6649 218.5727  1.00273430 42401
SBIRS GEO-1 (USA 230)   
1 37481U 11019A   26169.19226523  .00000091  00000+0  00000+0 0  9997
2 37481   4.5380  53.1243 0002274  29.7346 304.5958  1.00275270 55401
TELSTAR 14R             
1 37602U 11021A   26168.38525303 -.00000284  00000+0  00000+0 0  9998
2 37602   0.0141  48.4927 0002165   8.9017 283.9294  1.00271141 55834
GSAT-8                  
1 37605U 11022A   26169.19287190  .00000078  00000+0  00000+0 0  9991
2 37605   2.1346  81.8127 0002123 199.1293 110.0119  1.00271800 53222
ST-2                    
1 37606U 11022B   26169.12810446 -.00000217  00000+0  00000+0 0  9997
2 37606   0.0165  30.2026 0001620  65.6454 304.6540  1.00271611 55289
ZHONGXING-10            
1 37677U 11026A   26168.84245069 -.00000193  00000+0  00000+0 0  9993
2 37677   1.0487  84.1808 0003189   5.9650 204.6786  1.00267890 55003
SES-3                   
1 37748U 11035A   26169.29870900 -.00000108  00000+0  00000+0 0  9996
2 37748   1.3306  83.0738 0002289 355.8625 192.1394  1.00271386 54600
KAZSAT-2                
1 37749U 11035B   26168.70277961 -.00000203  00000+0  00000+0 0  9996
2 37749   0.0332 224.6477 0001234 292.7382  88.0883  1.00271691 53409
BEIDOU-2 IGSO-4         
1 37763U 11038A   26167.68545095  .00000019  00000+0  00000+0 0  9991
2 37763  54.6000 165.6770 0159519 231.4431 207.9860  1.00285273 54642
