OBJECT_NAME,OBJECT_ID,EPOCH,MEAN_MOTION,ECCENTRICITY,INCLINATION,RA_OF_ASC_NODE,ARG_OF_PERICENTER,MEAN_ANOMALY,EPHEMERIS_TYPE,CLASSIFICATION_TYPE,NORAD_CAT_ID,ELEMENT_SET_NO,REV_AT_EPOCH,BSTAR,MEAN_MOTION_DOT,MEAN_MOTION_DDOT
ASTRA 3B,2010-021A,2026-06-18T04:28:44.992704,1.00271376,.00041606,1.4722,83.5449,6.3830,267.1713,0,U,36581,999,5887,0,.13E-5,0
COMSATBW-2,2010-021B,2026-06-18T02:43:07.771296,1.00273035,.00026183,0.0479,67.5271,35.1547,217.6520,0,U,36582,999,5896,0,.82E-6,0
BEIDOU-2 G3,2010-024A,2026-06-18T03:01:58.464768,1.00270937,.0007734,4.5184,61.5132,351.2919,338.7568,0,U,36590,999,5877,0,-.144E-5,0
BADR-5,2010-025A,2026-06-18T04:30:44.801856,1.00272537,.0003879,0.0565,122.3347,70.1782,172.0656,0,U,36592,999,5322,0,.148E-5,0
COMS 1,2010-032A,2026-06-18T03:32:21.653376,0.99162666,.00115422,4.8083,75.3434,11.9093,301.8413,0,U,36744,999,5109,0,.7E-6,0
ARABSAT-5A,2010-032B,2026-06-18T04:30:44.801856,1.00275596,.00058845,0.0536,37.5781,72.1343,254.9228,0,U,36745,999,5865,0,.148E-5,0
ECHOSTAR 15,2010-034A,2026-06-17T02:55:41.638080,1.00271330,.0001951,0.0379,67.2237,353.8646,129.4280,0,U,36792,999,5832,0,-.4E-7,0
BEIDOU-2 IGSO-1,2010-036A,2026-06-17T22:01:50.166336,1.00271928,.0059238,54.3019,162.9525,225.3267,315.9903,0,U,36828,999,5810,0,-.86E-6,0
NILESAT 201,2010-037A,2026-06-18T04:20:00.830688,1.00272576,.00046113,0.0226,234.1830,242.9428,207.3345,0,U,36830,999,5838,0,-.63E-6,0
RASCOM-QAF 1R,2010-037B,2026-06-16T22:04:38.846784,1.00272678,.0006769,0.0270,75.8799,5.1949,158.1701,0,U,36831,999,5830,0,.16E-6,0
AEHF-1 (USA 214),2010-039A,2026-06-17T21:39:53.780256,1.00274872,.00039126,8.2218,68.0425,9.0891,183.9496,0,U,36868,999,5366,0,.138E-5,0
XM-5,2010-053A,2026-06-17T20:58:25.895712,1.00270093,.00028927,0.0616,273.1762,287.5831,264.7647,0,U,37185,999,5749,0,-.28E-6,0
BSAT-3B,2010-056B,2026-06-18T06:36:04.448736,1.00268755,.00016921,0.0594,238.2765,305.8503,291.2414,0,U,37207,999,5211,0,-.356E-5,0
BEIDOU-2 G4,2010-057A,2026-06-18T03:25:03.173376,1.00270614,.00053154,3.6494,68.9384,196.4016,212.3040,0,U,37210,999,5730,0,-.12E-5,0
SKYTERRA 1,2010-061A,2026-06-18T06:48:46.939968,1.00271921,.00022591,5.1281,50.8593,10.1886,206.3349,0,U,37218,999,5720,0,-.126E-5,0
HYLAS 1,2010-065A,2026-06-17T19:52:42.017376,1.00272604,.00008462,5.6459,73.0125,322.6364,182.4019,0,U,37237,999,689,0,.81E-6,0
INTELSAT 17 (IS-17),2010-065B,2026-06-18T04:57:21.564576,1.00271821,.00026348,0.0051,207.6251,255.7028,303.4570,0,U,37238,999,5325,0,-.7E-7,0
BEIDOU-2 IGSO-2,2010-068A,2026-06-15T20:29:59.130240,1.00282881,.0055883,47.5513,271.8488,212.6776,194.9519,0,U,37256,999,5678,0,-.214E-5,0
EUTELSAT KA-SAT 9A,2010-069A,2026-06-16T19:54:09.036000,1.00274919,.0003557,0.0613,11.4903,118.4700,82.6802,0,U,37258,999,4400,0,.59E-6,0
HISPASAT 30W-5,2010-070A,2026-06-18T04:13:31.452672,1.00271701,.0005184,0.0513,109.4530,355.1844,195.1667,0,U,37264,999,5319,0,-.222E-5,0
KOREASAT 6,2010-070B,2026-06-18T06:50:18.085056,1.00270851,.00021173,0.0143,52.8868,42.8157,73.2761,0,U,37265,999,5678,0,-.118E-5,0
BEIDOU-2 IGSO-3,2011-013A,2026-06-17T15:19:34.540608,1.00267211,.00345609,62.4080,40.1465,184.2780,19.0427,0,U,37384,999,5566,0,-.188E-5,0
INTELSAT 28 (IS-28),2011-016A,2026-06-18T04:13:01.501248,1.00271708,.00035885,1.8097,82.6045,5.3764,209.9749,0,U,37392,999,5329,0,-.232E-5,0
YAHSAT 1A,2011-016B,2026-06-16T23:31:51.172896,1.00273430,.00029103,0.0177,10.4655,81.6649,218.5727,0,U,37393,999,4240,0,0,0
SBIRS GEO-1 (USA 230),2011-019A,2026-06-18T04:36:51.715872,1.00275270,.00022746,4.5380,53.1243,29.7346,304.5958,0,U,37481,999,5540,0,.91E-6,0
TELSTAR 14R,2011-021A,2026-06-17T09:14:45.861792,1.00271141,.00021658,0.0141,48.4927,8.9017,283.9294,0,U,37602,999,5583,0,-.284E-5,0
GSAT-8,2011-022A,2026-06-18T04:37:44.132160,1.00271800,.00021232,2.1346,81.8127,199.1293,110.0119,0,U,37605,999,5322,0,.78E-6,0
ST-2,2011-022B,2026-06-18T03:04:28.225344,1.00271611,.00016204,0.0165,30.2026,65.6454,304.6540,0,U,37606,999,5528,0,-.217E-5,0
ZHONGXING-10,2011-026A,2026-06-17T20:13:07.739616,1.00267890,.00031899,1.0487,84.1808,5.9650,204.6786,0,U,37677,999,5500,0,-.193E-5,0
SES-3,2011-035A,2026-06-18T07:10:08.457600,1.00271386,.00022893,1.3306,83.0738,355.8625,192.1394,0,U,37748,999,5460,0,-.108E-5,0
KAZSAT-2,2011-035B,2026-06-17T16:52:00.158304,1.00271691,.00012347,0.0332,224.6477,292.7382,88.0883,0,U,37749,999,5340,0,-.203E-5,0
BEIDOU-2 IGSO-4,2011-038A,2026-06-16T16:27:02.962080,1.00285273,.01595197,54.6000,165.6770,231.4431,207.9860,0,U,37763,999,5464,0,.19E-6,0
